{
"type": "FeatureCollection",
"name": "vra",
"crs": { "type": "name", "properties": { "name": "urn:ogc:def:crs:EPSG::31982" } },
"features": [
{ "type": "Feature", "properties": { "weed_density": 31.079529588827491, "dominant_class": "Maleza" }, "geometry": { "type": "Polygon", "coordinates": [ [ [ 621364.326627619680949, 7741420.666911316104233 ], [ 621364.326627619680949, 7741423.666911316104233 ], [ 621361.326627619680949, 7741423.666911316104233 ], [ 621361.326627619680949, 7741420.666911316104233 ], [ 621364.326627619680949, 7741420.666911316104233 ] ] ] } },
{ "type": "Feature", "properties": { "weed_density": 40.098185162164732, "dominant_class": "Maleza" }, "geometry": { "type": "Polygon", "coordinates": [ [ [ 621364.326627619680949, 7741423.666911316104233 ], [ 621364.326627619680949, 7741426.666911316104233 ], [ 621361.326627619680949, 7741426.666911316104233 ], [ 621361.326627619680949, 7741423.666911316104233 ], [ 621364.326627619680949, 7741423.666911316104233 ] ] ] } },
{ "type": "Feature", "properties": { "weed_density": 51.515396815268268, "dominant_class": "Maleza" }, "geometry": { "type": "Polygon", "coordinates": [ [ [ 621364.326627619680949, 7741426.666911316104233 ], [ 621364.326627619680949, 7741429.666911316104233 ], [ 621361.326627619680949, 7741429.666911316104233 ], [ 621361.326627619680949, 7741426.666911316104233 ], [ 621364.326627619680949, 7741426.666911316104233 ] ] ] } },
{ "type": "Feature", "properties": { "weed_density": 24.09815097098711, "dominant_class": "Maleza" }, "geometry": { "type": "Polygon", "coordinates": [ [ [ 621364.326627619680949, 7741429.666911316104233 ], [ 621364.326627619680949, 7741432.666911316104233 ], [ 621361.326627619680949, 7741432.666911316104233 ], [ 621361.326627619680949, 7741429.666911316104233 ], [ 621364.326627619680949, 7741429.666911316104233 ] ] ] } },
{ "type": "Feature", "properties": { "weed_density": 28.969360473487615, "dominant_class": "Maleza" }, "geometry": { "type": "Polygon", "coordinates": [ [ [ 621367.326627619680949, 7741420.666911316104233 ], [ 621367.326627619680949, 7741423.666911316104233 ], [ 621364.326627619680949, 7741423.666911316104233 ], [ 621364.326627619680949, 7741420.666911316104233 ], [ 621367.326627619680949, 7741420.666911316104233 ] ] ] } },
{ "type": "Feature", "properties": { "weed_density": 43.081657747843906, "dominant_class": "Maleza" }, "geometry": { "type": "Polygon", "coordinates": [ [ [ 621367.326627619680949, 7741423.666911316104233 ], [ 621367.326627619680949, 7741426.666911316104233 ], [ 621364.326627619680949, 7741426.666911316104233 ], [ 621364.326627619680949, 7741423.666911316104233 ], [ 621367.326627619680949, 7741423.666911316104233 ] ] ] } },
{ "type": "Feature", "properties": { "weed_density": 46.215176989707203, "dominant_class": "Maleza" }, "geometry": { "type": "Polygon", "coordinates": [ [ [ 621367.326627619680949, 7741426.666911316104233 ], [ 621367.326627619680949, 7741429.666911316104233 ], [ 621364.326627619680949, 7741429.666911316104233 ], [ 621364.326627619680949, 7741426.666911316104233 ], [ 621367.326627619680949, 7741426.666911316104233 ] ] ] } },
{ "type": "Feature", "properties": { "weed_density": 21.376789257874545, "dominant_class": "Maleza" }, "geometry": { "type": "Polygon", "coordinates": [ [ [ 621367.326627619680949, 7741429.666911316104233 ], [ 621367.326627619680949, 7741432.666911316104233 ], [ 621364.326627619680949, 7741432.666911316104233 ], [ 621364.326627619680949, 7741429.666911316104233 ], [ 621367.326627619680949, 7741429.666911316104233 ] ] ] } },
{ "type": "Feature", "properties": { "weed_density": 29.257456864123753, "dominant_class": "Maleza" }, "geometry": { "type": "Polygon", "coordinates": [ [ [ 621370.326627619680949, 7741420.666911316104233 ], [ 621370.326627619680949, 7741423.666911316104233 ], [ 621367.326627619680949, 7741423.666911316104233 ], [ 621367.326627619680949, 7741420.666911316104233 ], [ 621370.326627619680949, 7741420.666911316104233 ] ] ] } },
{ "type": "Feature", "properties": { "weed_density": 37.694335719130656, "dominant_class": "Maleza" }, "geometry": { "type": "Polygon", "coordinates": [ [ [ 621370.326627619680949, 7741423.666911316104233 ], [ 621370.326627619680949, 7741426.666911316104233 ], [ 621367.326627619680949, 7741426.666911316104233 ], [ 621367.326627619680949, 7741423.666911316104233 ], [ 621370.326627619680949, 7741423.666911316104233 ] ] ] } },
{ "type": "Feature", "properties": { "weed_density": 39.701068214769755, "dominant_class": "Maleza" }, "geometry": { "type": "Polygon", "coordinates": [ [ [ 621370.326627619680949, 7741426.666911316104233 ], [ 621370.326627619680949, 7741429.666911316104233 ], [ 621367.326627619680949, 7741429.666911316104233 ], [ 621367.326627619680949, 7741426.666911316104233 ], [ 621370.326627619680949, 7741426.666911316104233 ] ] ] } },
{ "type": "Feature", "properties": { "weed_density": 18.336986929331665, "dominant_class": "Maleza" }, "geometry": { "type": "Polygon", "coordinates": [ [ [ 621370.326627619680949, 7741429.666911316104233 ], [ 621370.326627619680949, 7741432.666911316104233 ], [ 621367.326627619680949, 7741432.666911316104233 ], [ 621367.326627619680949, 7741429.666911316104233 ], [ 621370.326627619680949, 7741429.666911316104233 ] ] ] } },
{ "type": "Feature", "properties": { "weed_density": 7.4310268502810191, "dominant_class": "Maleza" }, "geometry": { "type": "Polygon", "coordinates": [ [ [ 621373.326627619680949, 7741420.666911316104233 ], [ 621373.326627619680949, 7741423.666911316104233 ], [ 621370.326627619680949, 7741423.666911316104233 ], [ 621370.326627619680949, 7741420.666911316104233 ], [ 621373.326627619680949, 7741420.666911316104233 ] ] ] } },
{ "type": "Feature", "properties": { "weed_density": 8.4235887460308376, "dominant_class": "Maleza" }, "geometry": { "type": "Polygon", "coordinates": [ [ [ 621373.326627619680949, 7741423.666911316104233 ], [ 621373.326627619680949, 7741426.666911316104233 ], [ 621370.326627619680949, 7741426.666911316104233 ], [ 621370.326627619680949, 7741423.666911316104233 ], [ 621373.326627619680949, 7741423.666911316104233 ] ] ] } },
{ "type": "Feature", "properties": { "weed_density": 9.6009046540150944, "dominant_class": "Maleza" }, "geometry": { "type": "Polygon", "coordinates": [ [ [ 621373.326627619680949, 7741426.666911316104233 ], [ 621373.326627619680949, 7741429.666911316104233 ], [ 621370.326627619680949, 7741429.666911316104233 ], [ 621370.326627619680949, 7741426.666911316104233 ], [ 621373.326627619680949, 7741426.666911316104233 ] ] ] } },
{ "type": "Feature", "properties": { "weed_density": 3.9054133242050346, "dominant_class": "Maleza" }, "geometry": { "type": "Polygon", "coordinates": [ [ [ 621373.326627619680949, 7741429.666911316104233 ], [ 621373.326627619680949, 7741432.666911316104233 ], [ 621370.326627619680949, 7741432.666911316104233 ], [ 621370.326627619680949, 7741429.666911316104233 ], [ 621373.326627619680949, 7741429.666911316104233 ] ] ] } }
]
}
